[{"OBJECT_NAME":"EUTELSAT 115 WEST B","OBJECT_ID":"2015-010B","EPOCH":"2026-03-09T15:01:52.978368","MEAN_MOTION":1.00270237,"ECCENTRICITY":2.142e-5,"INCLINATION":0.0285,"RA_OF_ASC_NODE":18.5594,"ARG_OF_PERICENTER":243.1707,"MEAN_ANOMALY":16.1295,"EPHEMERIS_TYPE":0,"CLASSIFICATION_TYPE":"U","NORAD_CAT_ID":40425,"ELEMENT_SET_NO":999,"REV_AT_EPOCH":4039,"BSTAR":0,"MEAN_MOTION_DOT":-2.3e-7,"MEAN_MOTION_DDOT":0},{"OBJECT_NAME":"ASC 1","OBJECT_ID":"1985-076C","EPOCH":"2026-03-09T09:39:36.007776","MEAN_MOTION":1.0031082,"ECCENTRICITY":0.00023555,"INCLINATION":13.8657,"RA_OF_ASC_NODE":344.0821,"ARG_OF_PERICENTER":26.5069,"MEAN_ANOMALY":186.0475,"EPHEMERIS_TYPE":0,"CLASSIFICATION_TYPE":"U","NORAD_CAT_ID":15994,"ELEMENT_SET_NO":999,"REV_AT_EPOCH":11697,"BSTAR":0,"MEAN_MOTION_DOT":-4.9e-7,"MEAN_MOTION_DDOT":0}]
